ORBCOMM FM37 [-]        
1 33064U 08031E   23289.48729307  .00002883  00000+0  45138-3 0  9996
2 33064  48.4422 351.1826 0006670 286.6700  87.2270 14.75240690823902
ORBCOMM FM40 [-]        
1 33065U 08031F   23289.44762256  .00003528  00000+0  53249-3 0  9992
2 33065  48.4442 342.5397 0008072 294.1231  79.4151 14.76306644823918
VESSELSAT 1 [-]         
1 37840U 11058C   23289.80655654  .00000488  00000+0  12241-3 0  9992
2 37840  19.9608 180.3698 0013614 325.3337  34.6180 14.11071955620120
ORBCOMM FM109 [+]       
1 40086U 14040A   23289.51509719  .00001623  00000+0  40284-3 0  9990
2 40086  47.0059  10.5181 0001467   0.5950 359.4936 14.55996382492150
ORBCOMM FM107 [+]       
1 40087U 14040B   23289.27483709  .00001649  00000+0  40884-3 0  9998
2 40087  47.0070  12.5821 0001814 313.4508  46.6226 14.55994251492192
ORBCOMM FM106 [-]       
1 40088U 14040C   23289.90017919  .00002264  00000+0  44017-3 0  9991
2 40088  47.0602 237.8039 0017500 122.7665 237.4913 14.66116015493977
ORBCOMM FM111 [-]       
1 40089U 14040D   23289.78173338  .00003151  00000+0  43355-3 0  9996
2 40089  47.0035 163.2287 0033481 168.4194 191.7478 14.80156438499776
ORBCOMM FM104 [-]       
1 40090U 14040E   23289.31296104  .00001543  00000+0  39655-3 0  9995
2 40090  47.0071  39.0475 0017810 299.7147  60.1964 14.54549189491772
